COSMOS 2550             
1 48865U 21056A   26067.47400841 -.00000192  00000+0 -13338-7 0  9992
2 48865  67.1451  44.6088 0008369 269.6014  90.4182 15.33829151263273
STARLINK-35393          
1 65827U 25221E   26068.44899472  .00022317  00000+0  76321-3 0  9995
2 65827  53.1596  89.6657 0001398  94.3604 265.7557 15.30205542 26043
